CTC1_L_00501001-01
1 79151U 26202VZ  26070.40837963  .00000000  00000+0  00000-0 0  9999
2 79151 101.2000   0.0000 0000000   0.0000   0.0000 12.53473438    10
CTC1_L_00501001-02
1 79152U 24767TP  26070.40837963  .00000000  00000+0  00000-0 0  9994
2 79152 101.2000   0.0000 0000000   0.0000  45.0000 12.53473438    10
CTC1_L_00501001-03
1 79153U 23739WV  26070.40837963  .00000000  00000+0  00000-0 0  9993
2 79153 101.2000   0.0000 0000000   0.0000  90.0000 12.53473438    11
CTC1_L_00501001-04
1 79154U 26636HA  26070.40837963  .00000000  00000+0  00000-0 0  9993
2 79154 101.2000   0.0000 0000000   0.0000 135.0000 12.53473438    12
CTC1_L_00501001-05
1 79155U 25522NT  26070.40837963  .00000000  00000+0  00000-0 0  9997
2 79155 101.2000   0.0000 0000000   0.0000 180.0000 12.53473438    13
CTC1_L_00501001-06
1 79156U 26673LD  26070.40837963  .00000000  00000+0  00000-0 0  9996
2 79156 101.2000   0.0000 0000000   0.0000 225.0000 12.53473438    14
CTC1_L_00501001-07
1 79157U 23703SQ  26070.40837963  .00000000  00000+0  00000-0 0  9998
2 79157 101.2000   0.0000 0000000   0.0000 270.0000 12.53473438    15
CTC1_L_00501001-08
1 79158U 22318HM  26070.40837963  .00000000  00000+0  00000-0 0  9990
2 79158 101.2000   0.0000 0000000   0.0000 315.0000 12.53473438    16
CTC1_L_00501002-01
1 79159U 22417ZT  26070.40837963  .00000000  00000+0  00000-0 0  9991
2 79159 101.2000  12.0000 0000000   0.0000   6.0000 12.53473438    17
CTC1_L_00501002-02
1 79160U 24254NR  26070.40837963  .00000000  00000+0  00000-0 0  9994
2 79160 101.2000  12.0000 0000000   0.0000  51.0000 12.53473438    19
CTC1_L_00501002-03
1 79161U 25586GO  26070.40837963  .00000000  00000+0  00000-0 0  9994
2 79161 101.2000  12.0000 0000000   0.0000  96.0000 12.53473438    19
CTC1_L_00501002-04
1 79162U 23093AU  26070.40837963  .00000000  00000+0  00000-0 0  9996
2 79162 101.2000  12.0000 0000000   0.0000 141.0000 12.53473438    11
CTC1_L_00501002-05
1 79163U 25182NL  26070.40837963  .00000000  00000+0  00000-0 0  9998
2 79163 101.2000  12.0000 0000000   0.0000 186.0000 12.53473438    11
CTC1_L_00501002-06
1 79164U 26876HT  26070.40837963  .00000000  00000+0  00000-0 0  9990
2 79164 101.2000  12.0000 0000000   0.0000 231.0000 12.53473438    13
CTC1_L_00501002-07
1 79165U 24221QR  26070.40837963  .00000000  00000+0  00000-0 0  9993
2 79165 101.2000  12.0000 0000000   0.0000 276.0000 12.53473438    13
CTC1_L_00501002-08
1 79166U 23072TN  26070.40837963  .00000000  00000+0  00000-0 0  9997
2 79166 101.2000  12.0000 0000000   0.0000 321.0000 12.53473438    15
CTC1_L_00501003-01
1 79167U 24098OQ  26070.40837963  .00000000  00000+0  00000-0 0  9997
2 79167 101.2000  24.0000 0000000   0.0000  12.0000 12.53473438    16
CTC1_L_00501003-02
1 79168U 24042GY  26070.40837963  .00000000  00000+0  00000-0 0  9997
2 79168 101.2000  24.0000 0000000   0.0000  57.0000 12.53473438    16
CTC1_L_00501003-03
1 79169U 23483JM  26070.40837963  .00000000  00000+0  00000-0 0  9996
2 79169 101.2000  24.0000 0000000   0.0000 102.0000 12.53473438    18
CTC1_L_00501003-04
1 79170U 23340FJ  26070.40837963  .00000000  00000+0  00000-0 0  9990
2 79170 101.2000  24.0000 0000000   0.0000 147.0000 12.53473438    19
CTC1_L_00501003-05
1 79171U 22412PP  26070.40837963  .00000000  00000+0  00000-0 0  9990
2 79171 101.2000  24.0000 0000000   0.0000 192.0000 12.53473438    10
CTC1_L_00501003-06
1 79172U 24522IZ  26070.40837963  .00000000  00000+0  00000-0 0  9995
2 79172 101.2000  24.0000 0000000   0.0000 237.0000 12.53473438    11
CTC1_L_00501003-07
1 79173U 22534DJ  26070.40837963  .00000000  00000+0  00000-0 0  9997
2 79173 101.2000  24.0000 0000000   0.0000 282.0000 12.53473438    12
CTC1_L_00501003-08
1 79174U 23332GF  26070.40837963  .00000000  00000+0  00000-0 0  9995
2 79174 101.2000  24.0000 0000000   0.0000 327.0000 12.53473438    13
CTC1_L_00501004-01
1 79175U 25188JD  26070.40837963  .00000000  00000+0  00000-0 0  9997
2 79175 101.2000  36.0000 0000000   0.0000  18.0000 12.53473438    14
CTC1_L_00501004-02
1 79176U 22086WD  26070.40837963  .00000000  00000+0  00000-0 0  9992
2 79176 101.2000  36.0000 0000000   0.0000  63.0000 12.53473438    15
CTC1_L_00501004-03
1 79177U 25750MH  26070.40837963  .00000000  00000+0  00000-0 0  9994
2 79177 101.2000  36.0000 0000000   0.0000 108.0000 12.53473438    16
CTC1_L_00501004-04
1 79178U 25890BK  26070.40837963  .00000000  00000+0  00000-0 0  9990
2 79178 101.2000  36.0000 0000000   0.0000 153.0000 12.53473438    17
CTC1_L_00501004-05
1 79179U 26160BG  26070.40837963  .00000000  00000+0  00000-0 0  9992
2 79179 101.2000  36.0000 0000000   0.0000 198.0000 12.53473438    17
CTC1_L_00501004-06
1 79180U 24596SB  26070.40837963  .00000000  00000+0  00000-0 0  9995
2 79180 101.2000  36.0000 0000000   0.0000 243.0000 12.53473438    10
CTC1_L_00501004-07
1 79181U 23968MC  26070.40837963  .00000000  00000+0  00000-0 0  9998
2 79181 101.2000  36.0000 0000000   0.0000 288.0000 12.53473438    10
CTC1_L_00501004-08
1 79182U 26379LL  26070.40837963  .00000000  00000+0  00000-0 0  9998
2 79182 101.2000  36.0000 0000000   0.0000 333.0000 12.53473438    12
CTC1_L_00501005-01
1 79183U 23344WZ  26070.40837963  .00000000  00000+0  00000-0 0  9998
2 79183 101.2000  48.0000 0000000   0.0000  24.0000 12.53473438    13
CTC1_L_00501005-02
1 79184U 23290NG  26070.40837963  .00000000  00000+0  00000-0 0  9999
2 79184 101.2000  48.0000 0000000   0.0000  69.0000 12.53473438    13
CTC1_L_00501005-03
1 79185U 24721GP  26070.40837963  .00000000  00000+0  00000-0 0  9990
2 79185 101.2000  48.0000 0000000   0.0000 114.0000 12.53473438    15
CTC1_L_00501005-04
1 79186U 26121QF  26070.40837963  .00000000  00000+0  00000-0 0  9997
2 79186 101.2000  48.0000 0000000   0.0000 159.0000 12.53473438    15
CTC1_L_00501005-05
1 79187U 24624XV  26070.40837963  .00000000  00000+0  00000-0 0  9994
2 79187 101.2000  48.0000 0000000   0.0000 204.0000 12.53473438    17
CTC1_L_00501005-06
1 79188U 26760QP  26070.40837963  .00000000  00000+0  00000-0 0  9998
2 79188 101.2000  48.0000 0000000   0.0000 249.0000 12.53473438    17
CTC1_L_00501005-07
1 79189U 24153AU  26070.40837963  .00000000  00000+0  00000-0 0  9993
2 79189 101.2000  48.0000 0000000   0.0000 294.0000 12.53473438    18
CTC1_L_00501005-08
1 79190U 24777VP  26070.40837963  .00000000  00000+0  00000-0 0  9997
2 79190 101.2000  48.0000 0000000   0.0000 339.0000 12.53473438    10
CTC1_L_00501006-01
1 79191U 22753RO  26070.40837963  .00000000  00000+0  00000-0 0  9990
2 79191 101.2000  60.0000 0000000   0.0000  30.0000 12.53473438    13
CTC1_L_00501006-02
1 79192U 23468QV  26070.40837963  .00000000  00000+0  00000-0 0  9995
2 79192 101.2000  60.0000 0000000   0.0000  75.0000 12.53473438    13
CTC1_L_00501006-03
1 79193U 24625FP  26070.40837963  .00000000  00000+0  00000-0 0  9992
2 79193 101.2000  60.0000 0000000   0.0000 120.0000 12.53473438    15
CTC1_L_00501006-04
1 79194U 24797EI  26070.40837963  .00000000  00000+0  00000-0 0  9993
2 79194 101.2000  60.0000 0000000   0.0000 165.0000 12.53473438    15
CTC1_L_00501006-05
1 79195U 26257ZF  26070.40837963  .00000000  00000+0  00000-0 0  9997
2 79195 101.2000  60.0000 0000000   0.0000 210.0000 12.53473438    17
CTC1_L_00501006-06
1 79196U 24400MB  26070.40837963  .00000000  00000+0  00000-0 0  9996
2 79196 101.2000  60.0000 0000000   0.0000 255.0000 12.53473438    17
CTC1_L_00501006-07
1 79197U 22392PH  26070.40837963  .00000000  00000+0  00000-0 0  9995
2 79197 101.2000  60.0000 0000000   0.0000 300.0000 12.53473438    19
CTC1_L_00501006-08
1 79198U 23748KS  26070.40837963  .00000000  00000+0  00000-0 0  9992
2 79198 101.2000  60.0000 0000000   0.0000 345.0000 12.53473438    19
CTC1_L_00501007-01
1 79199U 23843EL  26070.40837963  .00000000  00000+0  00000-0 0  9999
2 79199 101.2000  72.0000 0000000   0.0000  36.0000 12.53473438    10
CTC1_L_00501007-02
1 79200U 26217HT  26070.40837963  .00000000  00000+0  00000-0 0  9990
2 79200 101.2000  72.0000 0000000   0.0000  81.0000 12.53473438    13
CTC1_L_00501007-03
1 79201U 23150NU  26070.40837963  .00000000  00000+0  00000-0 0  9994
2 79201 101.2000  72.0000 0000000   0.0000 126.0000 12.53473438    14
CTC1_L_00501007-04
1 79202U 22863AT  26070.40837963  .00000000  00000+0  00000-0 0  9995
2 79202 101.2000  72.0000 0000000   0.0000 171.0000 12.53473438    15
CTC1_L_00501007-05
1 79203U 22032KK  26070.40837963  .00000000  00000+0  00000-0 0  9994
2 79203 101.2000  72.0000 0000000   0.0000 216.0000 12.53473438    16
CTC1_L_00501007-06
1 79204U 26264BN  26070.40837963  .00000000  00000+0  00000-0 0  9996
2 79204 101.2000  72.0000 0000000   0.0000 261.0000 12.53473438    17
CTC1_L_00501007-07
1 79205U 24568FC  26070.40837963  .00000000  00000+0  00000-0 0  9992
2 79205 101.2000  72.0000 0000000   0.0000 306.0000 12.53473438    18
CTC1_L_00501007-08
1 79206U 24350RM  26070.40837963  .00000000  00000+0  00000-0 0  9992
2 79206 101.2000  72.0000 0000000   0.0000 351.0000 12.53473438    19
CTC1_L_00501008-01
1 79207U 25690XR  26070.40837963  .00000000  00000+0  00000-0 0  9991
2 79207 101.2000  84.0000 0000000   0.0000  42.0000 12.53473438    10
CTC1_L_00501008-02
1 79208U 25964OH  26070.40837963  .00000000  00000+0  00000-0 0  9996
2 79208 101.2000  84.0000 0000000   0.0000  87.0000 12.53473438    10
CTC1_L_00501008-03
1 79209U 25253O   26070.40837963  .00000000  00000+0  00000-0 0  9998
2 79209 101.2000  84.0000 0000000   0.0000 132.0000 12.53473438    12
CTC1_L_00501008-04
1 79210U 22746SG  26070.40837963  .00000000  00000+0  00000-0 0  9994
2 79210 101.2000  84.0000 0000000   0.0000 177.0000 12.53473438    13
CTC1_L_00501008-05
1 79211U 24050YE  26070.40837963  .00000000  00000+0  00000-0 0  9995
2 79211 101.2000  84.0000 0000000   0.0000 222.0000 12.53473438    15
CTC1_L_00501008-06
1 79212U 23358GV  26070.40837963  .00000000  00000+0  00000-0 0  9996
2 79212 101.2000  84.0000 0000000   0.0000 267.0000 12.53473438    15
